TWILIGHT H              
1 67370U 26004H   26026.28040314  .00008815  00000+0  98179-3 0  9991
2 67370  97.7954  27.1891 0005507 248.4382 111.6247 14.87311417  2193
TWILIGHT J              
1 67371U 26004J   26026.27716085  .00009995  00000+0  11021-2 0  9996
2 67371  97.7994  27.1953 0004648 230.1017 129.9792 14.87688467  2194
TWILIGHT K              
1 67372U 26004K   26026.27397715  .00003620  00000+0  40086-3 0  9995
2 67372  97.7971  27.1975 0003037 223.1999 136.8980 14.87937708  2197
TWILIGHT L              
1 67373U 26004L   26026.27784108  .00003914  00000+0  43704-3 0  9998
2 67373  97.7986  27.1938 0004628 235.9955 124.0822 14.87544208  2196
TWILIGHT M              
1 67374U 26004M   26026.27469295  .00004361  00000+0  48228-3 0  9999
2 67374  97.7971  27.1953 0003301 224.1872 135.9082 14.87889108  2193
TWILIGHT N              
1 67375U 26004N   26026.27442966  .00004244  00000+0  46913-3 0  9995
2 67375  97.8007  27.2007 0003884 218.1379 141.9563 14.87914001  2199
TWILIGHT P              
1 67376U 26004P   26026.27585807  .00004832  00000+0  53520-3 0  9993
2 67376  97.8004  27.1980 0004233 224.9534 135.1340 14.87767439  2192
TWILIGHT Q              
1 67377U 26004Q   26026.27433928 -.00090468  00000+0 -10050-1 0  9991
2 67377  97.8007  27.2006 0004608 205.4923 154.6067 14.87732702  2184
TWILIGHT R              
1 67378U 26004R   26026.27659451  .00004548  00000+0  50506-3 0  9997
2 67378  97.7978  27.1938 0003653 235.9695 124.1175 14.87689621  2180
TWILIGHT S              
1 67379U 26004S   26026.27647420  .00004660  00000+0  51719-3 0  9993
2 67379  97.7982  27.1954 0004165 231.4693 128.6150 14.87700837  2187
TWILIGHT T              
1 67380U 26004T   26026.27561441  .00004715  00000+0  52208-3 0  9998
2 67380  97.7975  27.1955 0003673 230.4917 129.5975 14.87798079  2183
TWILIGHT U              
1 67381U 26004U   26025.33286567 -.00107252  00000+0 -11967-1 0  9995
2 67381  97.8011  26.2763 0001595 197.3365 162.7797 14.87665561  2047
