CCSDS_OMM_VERS = 2.0
CREATION_DATE  = 
ORIGINATOR     = 

OBJECT_NAME    = TWILIGHT H
OBJECT_ID      = 2026-004H
CENTER_NAME    = EARTH
REF_FRAME      = TEME
TIME_SYSTEM    = UTC
MEAN_ELEMENT_THEORY = SGP/SGP4

EPOCH          = 2026-01-26T06:43:46.831296
MEAN_MOTION    = 14.87311417
ECCENTRICITY   = .00055072
INCLINATION    = 97.7954
RA_OF_ASC_NODE = 27.1891
ARG_OF_PERICENTER = 248.4382
MEAN_ANOMALY   = 111.6247

EPHEMERIS_TYPE = 0
CLASSIFICATION_TYPE = U
NORAD_CAT_ID   = 67370
ELEMENT_SET_NO = 999
REV_AT_EPOCH   = 219
BSTAR          = .98178543E-3
MEAN_MOTION_DOT = .8815E-4
MEAN_MOTION_DDOT = 0

CCSDS_OMM_VERS = 2.0
CREATION_DATE  = 
ORIGINATOR     = 

OBJECT_NAME    = TWILIGHT J
OBJECT_ID      = 2026-004J
CENTER_NAME    = EARTH
REF_FRAME      = TEME
TIME_SYSTEM    = UTC
MEAN_ELEMENT_THEORY = SGP/SGP4

EPOCH          = 2026-01-26T06:39:06.697440
MEAN_MOTION    = 14.87688467
ECCENTRICITY   = .00046487
INCLINATION    = 97.7994
RA_OF_ASC_NODE = 27.1953
ARG_OF_PERICENTER = 230.1017
MEAN_ANOMALY   = 129.9792

EPHEMERIS_TYPE = 0
CLASSIFICATION_TYPE = U
NORAD_CAT_ID   = 67371
ELEMENT_SET_NO = 999
REV_AT_EPOCH   = 219
BSTAR          = .11020993E-2
MEAN_MOTION_DOT = .9995E-4
MEAN_MOTION_DDOT = 0

CCSDS_OMM_VERS = 2.0
CREATION_DATE  = 
ORIGINATOR     = 

OBJECT_NAME    = TWILIGHT K
OBJECT_ID      = 2026-004K
CENTER_NAME    = EARTH
REF_FRAME      = TEME
TIME_SYSTEM    = UTC
MEAN_ELEMENT_THEORY = SGP/SGP4

EPOCH          = 2026-01-26T06:34:31.625760
MEAN_MOTION    = 14.87937708
ECCENTRICITY   = .00030378
INCLINATION    = 97.7971
RA_OF_ASC_NODE = 27.1975
ARG_OF_PERICENTER = 223.1999
MEAN_ANOMALY   = 136.8980

EPHEMERIS_TYPE = 0
CLASSIFICATION_TYPE = U
NORAD_CAT_ID   = 67372
ELEMENT_SET_NO = 999
REV_AT_EPOCH   = 219
BSTAR          = .4008568E-3
MEAN_MOTION_DOT = .362E-4
MEAN_MOTION_DDOT = 0

CCSDS_OMM_VERS = 2.0
CREATION_DATE  = 
ORIGINATOR     = 

OBJECT_NAME    = TWILIGHT L
OBJECT_ID      = 2026-004L
CENTER_NAME    = EARTH
REF_FRAME      = TEME
TIME_SYSTEM    = UTC
MEAN_ELEMENT_THEORY = SGP/SGP4

EPOCH          = 2026-01-26T06:40:05.469312
MEAN_MOTION    = 14.87544208
ECCENTRICITY   = .00046286
INCLINATION    = 97.7986
RA_OF_ASC_NODE = 27.1938
ARG_OF_PERICENTER = 235.9955
MEAN_ANOMALY   = 124.0822

EPHEMERIS_TYPE = 0
CLASSIFICATION_TYPE = U
NORAD_CAT_ID   = 67373
ELEMENT_SET_NO = 999
REV_AT_EPOCH   = 219
BSTAR          = .43703743E-3
MEAN_MOTION_DOT = .3914E-4
MEAN_MOTION_DDOT = 0

CCSDS_OMM_VERS = 2.0
CREATION_DATE  = 
ORIGINATOR     = 

OBJECT_NAME    = TWILIGHT M
OBJECT_ID      = 2026-004M
CENTER_NAME    = EARTH
REF_FRAME      = TEME
TIME_SYSTEM    = UTC
MEAN_ELEMENT_THEORY = SGP/SGP4

EPOCH          = 2026-01-26T06:35:33.470880
MEAN_MOTION    = 14.87889108
ECCENTRICITY   = .00033015
INCLINATION    = 97.7971
RA_OF_ASC_NODE = 27.1953
ARG_OF_PERICENTER = 224.1872
MEAN_ANOMALY   = 135.9082

EPHEMERIS_TYPE = 0
CLASSIFICATION_TYPE = U
NORAD_CAT_ID   = 67374
ELEMENT_SET_NO = 999
REV_AT_EPOCH   = 219
BSTAR          = .48228131E-3
MEAN_MOTION_DOT = .4361E-4
MEAN_MOTION_DDOT = 0

CCSDS_OMM_VERS = 2.0
CREATION_DATE  = 
ORIGINATOR     = 

OBJECT_NAME    = TWILIGHT N
OBJECT_ID      = 2026-004N
CENTER_NAME    = EARTH
REF_FRAME      = TEME
TIME_SYSTEM    = UTC
MEAN_ELEMENT_THEORY = SGP/SGP4

EPOCH          = 2026-01-26T06:35:10.722624
MEAN_MOTION    = 14.87914001
ECCENTRICITY   = .00038848
INCLINATION    = 97.8007
RA_OF_ASC_NODE = 27.2007
ARG_OF_PERICENTER = 218.1379
MEAN_ANOMALY   = 141.9563

EPHEMERIS_TYPE = 0
CLASSIFICATION_TYPE = U
NORAD_CAT_ID   = 67375
ELEMENT_SET_NO = 999
REV_AT_EPOCH   = 219
BSTAR          = .46912767E-3
MEAN_MOTION_DOT = .4244E-4
MEAN_MOTION_DDOT = 0

CCSDS_OMM_VERS = 2.0
CREATION_DATE  = 
ORIGINATOR     = 

OBJECT_NAME    = TWILIGHT P
OBJECT_ID      = 2026-004P
CENTER_NAME    = EARTH
REF_FRAME      = TEME
TIME_SYSTEM    = UTC
MEAN_ELEMENT_THEORY = SGP/SGP4

EPOCH          = 2026-01-26T06:37:14.137248
MEAN_MOTION    = 14.87767439
ECCENTRICITY   = .00042336
INCLINATION    = 97.8004
RA_OF_ASC_NODE = 27.1980
ARG_OF_PERICENTER = 224.9534
MEAN_ANOMALY   = 135.1340

EPHEMERIS_TYPE = 0
CLASSIFICATION_TYPE = U
NORAD_CAT_ID   = 67376
ELEMENT_SET_NO = 999
REV_AT_EPOCH   = 219
BSTAR          = .53520175E-3
MEAN_MOTION_DOT = .4832E-4
MEAN_MOTION_DDOT = 0

CCSDS_OMM_VERS = 2.0
CREATION_DATE  = 
ORIGINATOR     = 

OBJECT_NAME    = TWILIGHT Q
OBJECT_ID      = 2026-004Q
CENTER_NAME    = EARTH
REF_FRAME      = TEME
TIME_SYSTEM    = UTC
MEAN_ELEMENT_THEORY = SGP/SGP4

EPOCH          = 2026-01-26T06:35:02.913792
MEAN_MOTION    = 14.87732702
ECCENTRICITY   = .00046089
INCLINATION    = 97.8007
RA_OF_ASC_NODE = 27.2006
ARG_OF_PERICENTER = 205.4923
MEAN_ANOMALY   = 154.6067

EPHEMERIS_TYPE = 0
CLASSIFICATION_TYPE = U
NORAD_CAT_ID   = 67377
ELEMENT_SET_NO = 999
REV_AT_EPOCH   = 218
BSTAR          = -.10049645E-1
MEAN_MOTION_DOT = -.90468E-3
MEAN_MOTION_DDOT = 0

CCSDS_OMM_VERS = 2.0
CREATION_DATE  = 
ORIGINATOR     = 

OBJECT_NAME    = TWILIGHT R
OBJECT_ID      = 2026-004R
CENTER_NAME    = EARTH
REF_FRAME      = TEME
TIME_SYSTEM    = UTC
MEAN_ELEMENT_THEORY = SGP/SGP4

EPOCH          = 2026-01-26T06:38:17.765664
MEAN_MOTION    = 14.87689621
ECCENTRICITY   = .00036532
INCLINATION    = 97.7978
RA_OF_ASC_NODE = 27.1938
ARG_OF_PERICENTER = 235.9695
MEAN_ANOMALY   = 124.1175

EPHEMERIS_TYPE = 0
CLASSIFICATION_TYPE = U
NORAD_CAT_ID   = 67378
ELEMENT_SET_NO = 999
REV_AT_EPOCH   = 218
BSTAR          = .5050591E-3
MEAN_MOTION_DOT = .4548E-4
MEAN_MOTION_DDOT = 0

CCSDS_OMM_VERS = 2.0
CREATION_DATE  = 
ORIGINATOR     = 

OBJECT_NAME    = TWILIGHT S
OBJECT_ID      = 2026-004S
CENTER_NAME    = EARTH
REF_FRAME      = TEME
TIME_SYSTEM    = UTC
MEAN_ELEMENT_THEORY = SGP/SGP4

EPOCH          = 2026-01-26T06:38:07.370880
MEAN_MOTION    = 14.87700837
ECCENTRICITY   = .00041655
INCLINATION    = 97.7982
RA_OF_ASC_NODE = 27.1954
ARG_OF_PERICENTER = 231.4693
MEAN_ANOMALY   = 128.6150

EPHEMERIS_TYPE = 0
CLASSIFICATION_TYPE = U
NORAD_CAT_ID   = 67379
ELEMENT_SET_NO = 999
REV_AT_EPOCH   = 218
BSTAR          = .51719301E-3
MEAN_MOTION_DOT = .466E-4
MEAN_MOTION_DDOT = 0

CCSDS_OMM_VERS = 2.0
CREATION_DATE  = 
ORIGINATOR     = 

OBJECT_NAME    = TWILIGHT T
OBJECT_ID      = 2026-004T
CENTER_NAME    = EARTH
REF_FRAME      = TEME
TIME_SYSTEM    = UTC
MEAN_ELEMENT_THEORY = SGP/SGP4

EPOCH          = 2026-01-26T06:36:53.085024
MEAN_MOTION    = 14.87798079
ECCENTRICITY   = .00036734
INCLINATION    = 97.7975
RA_OF_ASC_NODE = 27.1955
ARG_OF_PERICENTER = 230.4917
MEAN_ANOMALY   = 129.5975

EPHEMERIS_TYPE = 0
CLASSIFICATION_TYPE = U
NORAD_CAT_ID   = 67380
ELEMENT_SET_NO = 999
REV_AT_EPOCH   = 218
BSTAR          = .5220775E-3
MEAN_MOTION_DOT = .4715E-4
MEAN_MOTION_DDOT = 0

CCSDS_OMM_VERS = 2.0
CREATION_DATE  = 
ORIGINATOR     = 

OBJECT_NAME    = TWILIGHT U
OBJECT_ID      = 2026-004U
CENTER_NAME    = EARTH
REF_FRAME      = TEME
TIME_SYSTEM    = UTC
MEAN_ELEMENT_THEORY = SGP/SGP4

EPOCH          = 2026-01-25T07:59:19.593888
MEAN_MOTION    = 14.87665561
ECCENTRICITY   = .00015957
INCLINATION    = 97.8011
RA_OF_ASC_NODE = 26.2763
ARG_OF_PERICENTER = 197.3365
MEAN_ANOMALY   = 162.7797

EPHEMERIS_TYPE = 0
CLASSIFICATION_TYPE = U
NORAD_CAT_ID   = 67381
ELEMENT_SET_NO = 999
REV_AT_EPOCH   = 204
BSTAR          = -.11966576E-1
MEAN_MOTION_DOT = -.107252E-2
MEAN_MOTION_DDOT = 0

